IRIDIUM 29 [-]          
1 24944U 97051A   23082.18465824  .00000590  00000+0  19957-3 0  9995
2 24944  86.3940 126.3115 0002480  88.2541 271.8939 14.35188113336260
IRIDIUM 33 [-]          
1 24946U 97051C   23081.67127446  .00000372  00000+0  12636-3 0  9990
2 24946  86.3852 125.8332 0006516 210.5437 149.5380 14.33986484335554
IRIDIUM 28 [-]          
1 24948U 97051E   23081.85543951  .00000556  00000+0  18424-3 0  9990
2 24948  86.3940 124.4341 0002014  98.0576 262.0849 14.36109348336495
IRIDIUM 36 [-]          
1 24967U 97056C   23081.76423555  .00000637  00000+0  21164-3 0  9998
2 24967  86.4015 156.1165 0002421  99.4440 260.7030 14.36207809334848
IRIDIUM 39 [-]          
1 25042U 97069D   23081.83483855  .00001459  00000+0  39440-3 0  9993
2 25042  86.3984 200.9327 0019930 147.3152 212.9289 14.47059788330687
IRIDIUM 38 [-]          
1 25043U 97069E   23081.91846710  .00000902  00000+0  29996-3 0  9993
2 25043  86.3999 216.4943 0000053  49.1849 310.9352 14.36673771328564
IRIDIUM 42 [-]          
1 25077U 97077A   23081.85806533  .00000828  00000+0  28406-3 0  9993
2 25077  86.3994 221.6936 0001405  97.3834 262.7522 14.35003262323937
IRIDIUM 44 [-]          
1 25078U 97077B   23082.38565118  .00000971  00000+0  30980-3 0  9993
2 25078  86.4018 205.6131 0002616 141.1921 218.9466 14.38769010326234
IRIDIUM 45 [-]          
1 25104U 97082A   23081.91017998  .00016059  00000+0  11202-2 0  9994
2 25104  86.3743  72.3635 0196395  69.3281 292.8880 14.90890870329213
IRIDIUM 24 [-]          
1 25105U 97082B   23081.91290894  .00000882  00000+0  27119-3 0  9995
2 25105  86.3880  66.2575 0009373 252.0577 107.9600 14.40494306325502
IRIDIUM 51 [-]          
1 25262U 98018A   23081.76434613  .00019376  00000+0  11896-2 0  9993
2 25262  86.3896  83.4767 0181966  32.6359 328.5961 14.97132824323433
IRIDIUM 57 [-]          
1 25273U 98019B   23082.21492186  .00000502  00000+0  17029-3 0  9992
2 25273  86.3945 127.3527 0002337  92.1071 268.0392 14.34746288307825
IRIDIUM 63 [-]          
1 25286U 98021B   23082.46980093  .00000860  00000+0  29394-3 0  9990
2 25286  86.3958  64.1373 0002392  83.3411 276.8058 14.35227241306921
IRIDIUM 69 [-]          
1 25319U 98026A   23082.52377155  .00000746  00000+0  23398-3 0  9999
2 25319  86.3935  79.8058 0002704 139.5751 220.5649 14.39331470305772
