[
  {
    "OBJECT_NAME": "IRIDIUM 29 [-]",
    "OBJECT_ID": "1997-051A",
    "EPOCH": "2023-03-23T04:25:54.471936",
    "MEAN_MOTION": 14.35188113,
    "ECCENTRICITY": 0.000248,
    "INCLINATION": 86.394,
    "RA_OF_ASC_NODE": 126.3115,
    "ARG_OF_PERICENTER": 88.2541,
    "MEAN_ANOMALY": 271.8939,
    "EPHEMERIS_TYPE": 0,
    "CLASSIFICATION_TYPE": "U",
    "NORAD_CAT_ID": 24944,
    "ELEMENT_SET_NO": 999,
    "REV_AT_EPOCH": 33626,
    "BSTAR": 0.00019957,
    "MEAN_MOTION_DOT": 5.9e-6,
    "MEAN_MOTION_DDOT": 0
  },
  {
    "OBJECT_NAME": "IRIDIUM 33 [-]",
    "OBJECT_ID": "1997-051C",
    "EPOCH": "2023-03-22T16:06:38.113344",
    "MEAN_MOTION": 14.33986484,
    "ECCENTRICITY": 0.0006516,
    "INCLINATION": 86.3852,
    "RA_OF_ASC_NODE": 125.8332,
    "ARG_OF_PERICENTER": 210.5437,
    "MEAN_ANOMALY": 149.538,
    "EPHEMERIS_TYPE": 0,
    "CLASSIFICATION_TYPE": "U",
    "NORAD_CAT_ID": 24946,
    "ELEMENT_SET_NO": 999,
    "REV_AT_EPOCH": 33555,
    "BSTAR": 0.00012636,
    "MEAN_MOTION_DOT": 3.72e-6,
    "MEAN_MOTION_DDOT": 0
  },
  {
    "OBJECT_NAME": "IRIDIUM 28 [-]",
    "OBJECT_ID": "1997-051E",
    "EPOCH": "2023-03-22T20:31:49.973664",
    "MEAN_MOTION": 14.36109348,
    "ECCENTRICITY": 0.0002014,
    "INCLINATION": 86.394,
    "RA_OF_ASC_NODE": 124.4341,
    "ARG_OF_PERICENTER": 98.0576,
    "MEAN_ANOMALY": 262.0849,
    "EPHEMERIS_TYPE": 0,
    "CLASSIFICATION_TYPE": "U",
    "NORAD_CAT_ID": 24948,
    "ELEMENT_SET_NO": 999,
    "REV_AT_EPOCH": 33649,
    "BSTAR": 0.00018424,
    "MEAN_MOTION_DOT": 5.56e-6,
    "MEAN_MOTION_DDOT": 0
  },
  {
    "OBJECT_NAME": "IRIDIUM 36 [-]",
    "OBJECT_ID": "1997-056C",
    "EPOCH": "2023-03-22T18:20:29.951520",
    "MEAN_MOTION": 14.36207809,
    "ECCENTRICITY": 0.0002421,
    "INCLINATION": 86.4015,
    "RA_OF_ASC_NODE": 156.1165,
    "ARG_OF_PERICENTER": 99.444,
    "MEAN_ANOMALY": 260.703,
    "EPHEMERIS_TYPE": 0,
    "CLASSIFICATION_TYPE": "U",
    "NORAD_CAT_ID": 24967,
    "ELEMENT_SET_NO": 999,
    "REV_AT_EPOCH": 33484,
    "BSTAR": 0.00021164,
    "MEAN_MOTION_DOT": 6.37e-6,
    "MEAN_MOTION_DDOT": 0
  },
  {
    "OBJECT_NAME": "IRIDIUM 39 [-]",
    "OBJECT_ID": "1997-069D",
    "EPOCH": "2023-03-22T20:02:10.050720",
    "MEAN_MOTION": 14.47059788,
    "ECCENTRICITY": 0.001993,
    "INCLINATION": 86.3984,
    "RA_OF_ASC_NODE": 200.9327,
    "ARG_OF_PERICENTER": 147.3152,
    "MEAN_ANOMALY": 212.9289,
    "EPHEMERIS_TYPE": 0,
    "CLASSIFICATION_TYPE": "U",
    "NORAD_CAT_ID": 25042,
    "ELEMENT_SET_NO": 999,
    "REV_AT_EPOCH": 33068,
    "BSTAR": 0.0003944,
    "MEAN_MOTION_DOT": 1.459e-5,
    "MEAN_MOTION_DDOT": 0
  },
  {
    "OBJECT_NAME": "IRIDIUM 38 [-]",
    "OBJECT_ID": "1997-069E",
    "EPOCH": "2023-03-22T22:02:35.557440",
    "MEAN_MOTION": 14.36673771,
    "ECCENTRICITY": 5.3e-6,
    "INCLINATION": 86.3999,
    "RA_OF_ASC_NODE": 216.4943,
    "ARG_OF_PERICENTER": 49.1849,
    "MEAN_ANOMALY": 310.9352,
    "EPHEMERIS_TYPE": 0,
    "CLASSIFICATION_TYPE": "U",
    "NORAD_CAT_ID": 25043,
    "ELEMENT_SET_NO": 999,
    "REV_AT_EPOCH": 32856,
    "BSTAR": 0.00029996,
    "MEAN_MOTION_DOT": 9.02e-6,
    "MEAN_MOTION_DDOT": 0
  },
  {
    "OBJECT_NAME": "IRIDIUM 42 [-]",
    "OBJECT_ID": "1997-077A",
    "EPOCH": "2023-03-22T20:35:36.844512",
    "MEAN_MOTION": 14.35003262,
    "ECCENTRICITY": 0.0001405,
    "INCLINATION": 86.3994,
    "RA_OF_ASC_NODE": 221.6936,
    "ARG_OF_PERICENTER": 97.3834,
    "MEAN_ANOMALY": 262.7522,
    "EPHEMERIS_TYPE": 0,
    "CLASSIFICATION_TYPE": "U",
    "NORAD_CAT_ID": 25077,
    "ELEMENT_SET_NO": 999,
    "REV_AT_EPOCH": 32393,
    "BSTAR": 0.00028406,
    "MEAN_MOTION_DOT": 8.28e-6,
    "MEAN_MOTION_DDOT": 0
  },
  {
    "OBJECT_NAME": "IRIDIUM 44 [-]",
    "OBJECT_ID": "1997-077B",
    "EPOCH": "2023-03-23T09:15:20.261952",
    "MEAN_MOTION": 14.3876901,
    "ECCENTRICITY": 0.0002616,
    "INCLINATION": 86.4018,
    "RA_OF_ASC_NODE": 205.6131,
    "ARG_OF_PERICENTER": 141.1921,
    "MEAN_ANOMALY": 218.9466,
    "EPHEMERIS_TYPE": 0,
    "CLASSIFICATION_TYPE": "U",
    "NORAD_CAT_ID": 25078,
    "ELEMENT_SET_NO": 999,
    "REV_AT_EPOCH": 32623,
    "BSTAR": 0.0003098,
    "MEAN_MOTION_DOT": 9.71e-6,
    "MEAN_MOTION_DDOT": 0
  },
  {
    "OBJECT_NAME": "IRIDIUM 45 [-]",
    "OBJECT_ID": "1997-082A",
    "EPOCH": "2023-03-22T21:50:39.550272",
    "MEAN_MOTION": 14.9089087,
    "ECCENTRICITY": 0.0196395,
    "INCLINATION": 86.3743,
    "RA_OF_ASC_NODE": 72.3635,
    "ARG_OF_PERICENTER": 69.3281,
    "MEAN_ANOMALY": 292.888,
    "EPHEMERIS_TYPE": 0,
    "CLASSIFICATION_TYPE": "U",
    "NORAD_CAT_ID": 25104,
    "ELEMENT_SET_NO": 999,
    "REV_AT_EPOCH": 32921,
    "BSTAR": 0.0011202,
    "MEAN_MOTION_DOT": 0.00016059,
    "MEAN_MOTION_DDOT": 0
  },
  {
    "OBJECT_NAME": "IRIDIUM 24 [-]",
    "OBJECT_ID": "1997-082B",
    "EPOCH": "2023-03-22T21:54:35.332416",
    "MEAN_MOTION": 14.40494306,
    "ECCENTRICITY": 0.0009373,
    "INCLINATION": 86.388,
    "RA_OF_ASC_NODE": 66.2575,
    "ARG_OF_PERICENTER": 252.0577,
    "MEAN_ANOMALY": 107.96,
    "EPHEMERIS_TYPE": 0,
    "CLASSIFICATION_TYPE": "U",
    "NORAD_CAT_ID": 25105,
    "ELEMENT_SET_NO": 999,
    "REV_AT_EPOCH": 32550,
    "BSTAR": 0.00027119,
    "MEAN_MOTION_DOT": 8.82e-6,
    "MEAN_MOTION_DDOT": 0
  },
  {
    "OBJECT_NAME": "IRIDIUM 51 [-]",
    "OBJECT_ID": "1998-018A",
    "EPOCH": "2023-03-22T18:20:39.505632",
    "MEAN_MOTION": 14.97132824,
    "ECCENTRICITY": 0.0181966,
    "INCLINATION": 86.3896,
    "RA_OF_ASC_NODE": 83.4767,
    "ARG_OF_PERICENTER": 32.6359,
    "MEAN_ANOMALY": 328.5961,
    "EPHEMERIS_TYPE": 0,
    "CLASSIFICATION_TYPE": "U",
    "NORAD_CAT_ID": 25262,
    "ELEMENT_SET_NO": 999,
    "REV_AT_EPOCH": 32343,
    "BSTAR": 0.0011896,
    "MEAN_MOTION_DOT": 0.00019376,
    "MEAN_MOTION_DDOT": 0
  },
  {
    "OBJECT_NAME": "IRIDIUM 57 [-]",
    "OBJECT_ID": "1998-019B",
    "EPOCH": "2023-03-23T05:09:29.248704",
    "MEAN_MOTION": 14.34746288,
    "ECCENTRICITY": 0.0002337,
    "INCLINATION": 86.3945,
    "RA_OF_ASC_NODE": 127.3527,
    "ARG_OF_PERICENTER": 92.1071,
    "MEAN_ANOMALY": 268.0392,
    "EPHEMERIS_TYPE": 0,
    "CLASSIFICATION_TYPE": "U",
    "NORAD_CAT_ID": 25273,
    "ELEMENT_SET_NO": 999,
    "REV_AT_EPOCH": 30782,
    "BSTAR": 0.00017029,
    "MEAN_MOTION_DOT": 5.02e-6,
    "MEAN_MOTION_DDOT": 0
  },
  {
    "OBJECT_NAME": "IRIDIUM 63 [-]",
    "OBJECT_ID": "1998-021B",
    "EPOCH": "2023-03-23T11:16:30.800352",
    "MEAN_MOTION": 14.35227241,
    "ECCENTRICITY": 0.0002392,
    "INCLINATION": 86.3958,
    "RA_OF_ASC_NODE": 64.1373,
    "ARG_OF_PERICENTER": 83.3411,
    "MEAN_ANOMALY": 276.8058,
    "EPHEMERIS_TYPE": 0,
    "CLASSIFICATION_TYPE": "U",
    "NORAD_CAT_ID": 25286,
    "ELEMENT_SET_NO": 999,
    "REV_AT_EPOCH": 30692,
    "BSTAR": 0.00029394,
    "MEAN_MOTION_DOT": 8.6e-6,
    "MEAN_MOTION_DDOT": 0
  },
  {
    "OBJECT_NAME": "IRIDIUM 69 [-]",
    "OBJECT_ID": "1998-026A",
    "EPOCH": "2023-03-23T12:34:13.861920",
    "MEAN_MOTION": 14.3933147,
    "ECCENTRICITY": 0.0002704,
    "INCLINATION": 86.3935,
    "RA_OF_ASC_NODE": 79.8058,
    "ARG_OF_PERICENTER": 139.5751,
    "MEAN_ANOMALY": 220.5649,
    "EPHEMERIS_TYPE": 0,
    "CLASSIFICATION_TYPE": "U",
    "NORAD_CAT_ID": 25319,
    "ELEMENT_SET_NO": 999,
    "REV_AT_EPOCH": 30577,
    "BSTAR": 0.00023398,
    "MEAN_MOTION_DOT": 7.46e-6,
    "MEAN_MOTION_DDOT": 0
  }
]